NORAD_CAT_ID,OBJECT_NAME,OBJECT_TYPE,EPOCH,MEAN_MOTION,ECCENTRICITY,INCLINATION,RA_OF_ASC_NODE,ARG_OF_PERICENTER,MEAN_ANOMALY,BSTAR,MEAN_MOTION_DOT,MEAN_MOTION_DDOT,TLE_LINE0,TLE_LINE1,TLE_LINE2,SEMIMAJOR_AXIS,PERIOD,APOGEE,PERIGEE,DECAYED
53853.0,STARLINK-4794,PAYLOAD,2024-03-31 13:38:18,15.0883293,0.0001332,53.2156,232.6972,77.7169,282.3973,0.0011312,0.00017757,0.0,0 STARLINK-4794,1 53853U 22114AM  24091.56826898  .00017757  00000-0  11312-2 0  9999,2 53853  53.2156 232.6972 0001332  77.7169 282.3973 15.08832930 86079,6917.902,95.438,540.688,538.846,0.0
53853.0,STARLINK-4794,PAYLOAD,2024-03-31 16:49:04,15.08841436,0.0001443,53.2172,232.1036,79.0462,281.0692,0.0013235,0.00020839,0.0,0 STARLINK-4794,1 53853U 22114AM  24091.70074895  .00020839  00000-0  13235-2 0  9998,2 53853  53.2172 232.1036 0001443  79.0462 281.0692 15.08841436 86094,6917.876,95.437,540.739,538.743,0.0
53853.0,STARLINK-4794,PAYLOAD,2024-04-01 02:21:23,15.08853426,0.0001421,53.2168,230.3192,78.8613,281.2539,0.0011552,0.00018152,0.0,0 STARLINK-4794,1 53853U 22114AM  24092.09818702  .00018152  00000-0  11552-2 0  9999,2 53853  53.2168 230.3192 0001421  78.8613 281.2539 15.08853426 85614,6917.839,95.437,540.687,538.721,0.0
53853.0,STARLINK-4794,PAYLOAD,2024-04-01 08:42:56,15.08846342,0.0002278,53.217,229.1297,81.4592,278.6658,0.00071858,0.00011169,0.0,0 STARLINK-4794,1 53853U 22114AM  24092.36315139  .00011169  00000-0  71858-3 0  9992,2 53853  53.2170 229.1297 0002278  81.4592 278.6658 15.08846342 85651,6917.861,95.437,541.302,538.15,0.0
53853.0,STARLINK-4794,PAYLOAD,2024-04-01 15:04:28,15.08834867,0.0001245,53.2164,227.9406,84.7492,275.3642,0.0010695,0.00016772,0.0,0 STARLINK-4794,1 53853U 22114AM  24092.62811180  .00016772  00000-0  10695-2 0  9994,2 53853  53.2164 227.9406 0001245  84.7492 275.3642 15.08834867 86231,6917.896,95.438,540.622,538.9,0.0
53853.0,STARLINK-4794,PAYLOAD,2024-04-01 18:15:15,15.0884083,0.0001351,53.2166,227.346,83.1918,276.9227,0.0015757,0.00024879,0.0,0 STARLINK-4794,1 53853U 22114AM  24092.76059194  .00024879  00000-0  15757-2 0  9999,2 53853  53.2166 227.3460 0001351  83.1918 276.9227 15.08840830 85716,6917.878,95.438,540.677,538.808,0.0
53853.0,STARLINK-4794,PAYLOAD,2024-04-02 08:33:43,15.08851236,0.0002552,53.2155,224.6693,81.5726,278.5556,0.0010147,0.00015903,0.0,0 STARLINK-4794,1 53853U 22114AM  24093.35675566  .00015903  00000-0  10147-2 0  9998,2 53853  53.2155 224.6693 0002552  81.5726 278.5556 15.08851236 85800,6917.846,95.437,541.476,537.946,0.0
53853.0,STARLINK-4794,PAYLOAD,2024-04-02 14:55:16,15.08838316,0.0001193,53.2156,223.4797,86.2714,273.8414,0.00049638,7.62e-05,0.0,0 STARLINK-4794,1 53853U 22114AM  24093.62171515  .00007620  00000-0  49638-3 0  9998,2 53853  53.2156 223.4797 0001193  86.2714 273.8414 15.08838316 86381,6917.886,95.438,540.576,538.925,0.0
53853.0,STARLINK-4794,PAYLOAD,2024-04-02 18:06:02,15.08843504,0.0001308,53.2158,222.8839,91.6994,268.4148,0.0006411,9.931e-05,0.0,0 STARLINK-4794,1 53853U 22114AM  24093.75419480  .00009931  00000-0  64110-3 0  9997,2 53853  53.2158 222.8839 0001308  91.6994 268.4148 15.08843504 85862,6917.87,95.437,540.64,538.83,0.0
53853.0,STARLINK-4794,PAYLOAD,2024-04-03 11:35:16,15.0884533,0.0001511,53.2163,219.6129,97.3727,262.7437,0.00050938,7.829e-05,0.0,0 STARLINK-4794,1 53853U 22114AM  24094.48283554  .00007829  00000-0  50938-3 0  9996,2 53853  53.2163 219.6129 0001511  97.3727 262.7437 15.08845330 85976,6917.864,95.437,540.774,538.684,0.0
53853.0,STARLINK-4794,PAYLOAD,2024-04-03 14:46:03,15.08846297,0.0001478,53.2166,219.0181,95.1726,264.9435,0.00049072,7.532e-05,0.0,0 STARLINK-4794,1 53853U 22114AM  24094.61531525  .00007532  00000-0  49072-3 0  9993,2 53853  53.2166 219.0181 0001478  95.1726 264.9435 15.08846297 86536,6917.861,95.437,540.749,538.704,0.0
53853.0,STARLINK-4794,PAYLOAD,2024-04-03 17:56:49,15.08849307,0.0001519,53.2168,218.4229,95.8561,264.2604,0.00053392,8.222e-05,0.0,0 STARLINK-4794,1 53853U 22114AM  24094.74779425  .00008222  00000-0  53392-3 0  9997,2 53853  53.2168 218.4229 0001519  95.8561 264.2604 15.08849307 86552,6917.852,95.437,540.768,538.666,0.0
53853.0,STARLINK-4794,PAYLOAD,2024-04-04 13:01:27,15.08836539,0.0001678,53.2184,214.856,95.5536,264.5647,-2.1262e-05,-6.26e-06,0.0,0 STARLINK-4794,1 53853U 22114AM  24095.54267634 -.00000626  00000-0 -21262-4 0  9994,2 53853  53.2184 214.8560 0001678  95.5536 264.5647 15.08836539 86130,6917.891,95.438,540.917,538.595,0.0
53853.0,STARLINK-4794,PAYLOAD,2024-04-04 14:36:50,15.08838242,0.0001388,53.217,214.56,94.2343,265.8808,8.7938e-05,1.112e-05,0.0,0 STARLINK-4794,1 53853U 22114AM  24095.60891620  .00001112  00000-0  87938-4 0  9990,2 53853  53.2170 214.5600 0001388  94.2343 265.8808 15.08838242 86683,6917.886,95.438,540.711,538.791,0.0
53853.0,STARLINK-4794,PAYLOAD,2024-04-05 12:52:13,15.08853558,0.0001449,53.2173,210.3948,96.8334,263.2823,0.00030783,4.616e-05,0.0,0 STARLINK-4794,1 53853U 22114AM  24096.53626835  .00004616  00000-0  30783-3 0  9994,2 53853  53.2173 210.3948 0001449  96.8334 263.2823 15.08853558 86283,6917.839,95.437,540.706,538.702,0.0
53853.0,STARLINK-4794,PAYLOAD,2024-04-05 14:27:36,15.08857967,0.0001347,53.2168,210.0985,92.1897,267.9249,0.00045865,7.023e-05,0.0,0 STARLINK-4794,1 53853U 22114AM  24096.60250750  .00007023  00000-0  45865-3 0  9993,2 53853  53.2168 210.0985 0001347  92.1897 267.9249 15.08857967 86837,6917.825,95.436,540.622,538.759,0.0
53853.0,STARLINK-4794,PAYLOAD,2024-04-06 07:56:51,15.08846431,0.0001441,53.2182,206.8303,94.5374,265.5783,5.6846e-05,6.17e-06,0.0,0 STARLINK-4794,1 53853U 22114AM  24097.33114758  .00000617  00000-0  56846-4 0  9995,2 53853  53.2182 206.8303 0001441  94.5374 265.5783 15.08846431 86405,6917.861,95.437,540.723,538.729,0.0
53853.0,STARLINK-4794,PAYLOAD,2024-04-06 14:18:24,15.08844249,0.0001391,53.2174,205.6373,87.589,272.5261,0.00016468,2.334e-05,0.0,0 STARLINK-4794,1 53853U 22114AM  24097.59611129  .00002334  00000-0  16468-3 0  9990,2 53853  53.2174 205.6373 0001391  87.5890 272.5261 15.08844249 86986,6917.867,95.437,540.695,538.77,0.0
53853.0,STARLINK-4794,PAYLOAD,2024-04-07 07:47:38,15.08837492,4.86e-05,53.2173,202.365,5.1337,354.966,0.00011482,1.54e-05,0.0,0 STARLINK-4794,1 53853U 22114AM  24098.32475346  .00001540  00000-0  11482-3 0  9990,2 53853  53.2173 202.3650 0000486   5.1337 354.9660 15.08837492 86556,6917.888,95.438,540.089,539.417,0.0
53853.0,STARLINK-4794,PAYLOAD,2024-04-07 14:09:11,15.08835371,8.65e-05,53.2171,201.1756,70.6745,289.4341,0.00010946,1.455e-05,0.0,0 STARLINK-4794,1 53853U 22114AM  24098.58971562  .00001455  00000-0  10946-3 0  9998,2 53853  53.2171 201.1756 0000865  70.6745 289.4341 15.08835371 87136,6917.895,95.438,540.358,539.161,0.0
53853.0,STARLINK-4794,PAYLOAD,2024-04-08 06:03:02,15.08850813,0.000179,53.2161,198.2015,91.6939,268.4258,0.00053463,8.233e-05,0.0,0 STARLINK-4794,1 53853U 22114AM  24099.25211262  .00008233  00000-0  53463-3 0  9999,2 53853  53.2161 198.2015 0001790  91.6939 268.4258 15.08850813 87238,6917.847,95.437,540.951,538.474,0.0
53853.0,STARLINK-4794,PAYLOAD,2024-04-08 23:32:15,15.08877964,0.000114,53.2185,194.9324,74.3862,285.7255,0.00075432,0.0001175,0.0,0 STARLINK-4794,1 53853U 22114AM  24099.98073462  .00011750  00000-0  75432-3 0  9995,2 53853  53.2185 194.9324 0001140  74.3862 285.7255 15.08877964 87349,6917.764,95.435,540.418,538.841,0.0
53853.0,STARLINK-4794,PAYLOAD,2024-04-09 05:53:49,15.08805185,0.0001732,53.216,193.743,95.8565,264.2624,-0.0014043,-0.00022547,0.0,0 STARLINK-4794,1 53853U 22114AM  24100.24570676 -.00022547  00000-0 -14043-2 0  9994,2 53853  53.2160 193.7430 0001732  95.8565 264.2624 15.08805185 86844,6917.987,95.44,541.05,538.654,0.0
53853.0,STARLINK-4794,PAYLOAD,2024-04-09 12:15:22,15.08772644,9.93e-05,53.2179,192.5526,112.4036,247.7062,-0.0016115,-0.00025796,0.0,0 STARLINK-4794,1 53853U 22114AM  24100.51068134 -.00025796  00000-0 -16115-2 0  9996,2 53853  53.2179 192.5526 0000993 112.4036 247.7062 15.08772644 86883,6918.086,95.442,540.638,539.264,0.0
53853.0,STARLINK-4794,PAYLOAD,2024-04-10 05:44:38,15.08828355,0.000117,53.2186,189.2835,91.0074,269.1052,0.00063556,9.838e-05,0.0,0 STARLINK-4794,1 53853U 22114AM  24101.23933229  .00009838  00000-0  63556-3 0  9991,2 53853  53.2186 189.2835 0001170  91.0074 269.1052 15.08828355 86999,6917.916,95.438,540.59,538.972,0.0
53853.0,STARLINK-4794,PAYLOAD,2024-04-10 12:06:10,15.08844392,0.0001183,53.2175,188.0948,89.7114,270.4014,0.0012458,0.00019597,0.0,0 STARLINK-4794,1 53853U 22114AM  24101.50429347  .00019597  00000-0  12458-2 0  9999,2 53853  53.2175 188.0948 0001183  89.7114 270.4014 15.08844392 87579,6917.867,95.437,540.55,538.914,0.0
53853.0,STARLINK-4794,PAYLOAD,2024-04-10 15:16:56,15.08860897,0.0001332,53.216,187.4993,82.8112,277.3032,0.0017651,0.00027931,0.0,0 STARLINK-4794,1 53853U 22114AM  24101.63677073  .00027931  00000-0  17651-2 0  9995,2 53853  53.2160 187.4993 0001332  82.8112 277.3032 15.08860897 87051,6917.817,95.436,540.603,538.76,0.0
53853.0,STARLINK-4794,PAYLOAD,2024-04-11 05:35:24,15.08872931,0.0003381,53.2181,184.8221,90.858,269.28,0.00127,0.00020001,0.0,0 STARLINK-4794,1 53853U 22114AM  24102.23292673  .00020001  00000-0  12700-2 0  9992,2 53853  53.2181 184.8221 0003381  90.8580 269.2800 15.08872931 87148,6917.78,95.435,541.984,537.306,0.0
53853.0,STARLINK-4794,PAYLOAD,2024-04-11 11:56:57,15.08855466,0.000153,53.2164,183.6332,90.1969,269.9199,0.0004347,6.64e-05,0.0,0 STARLINK-4794,1 53853U 22114AM  24102.49788324  .00006640  00000-0  43470-3 0  9995,2 53853  53.2164 183.6332 0001530  90.1969 269.9199 15.08855466 87183,6917.833,95.437,540.757,538.64,0.0
53853.0,STARLINK-4794,PAYLOAD,2024-04-12 05:26:11,15.08854211,0.0001597,53.2161,180.3613,99.283,260.8342,0.0006807,0.00010566,0.0,0 STARLINK-4794,1 53853U 22114AM  24103.22652084  .00010566  00000-0  68070-3 0  9995,2 53853  53.2161 180.3613 0001597  99.2830 260.8342 15.08854211 87295,6917.837,95.437,540.807,538.597,0.0
